P/2019 LM4 (Palomar),e,36.4169,72.8909,68.2065,5.702607,0.0723759,0.58609249,155.1129,05/02.0/2025,2000,g  9.5,4.0
# From MPC118095
C/2019 LB7 (Kleyna),e,164.2800,3.9943,336.7679,35.01613,0.0047567,0.92874188,10.5957,05/02.0/2025,2000,g 17.0,4.0
# From MPC118095
C/2019 M3 (ATLAS),e,99.6424,155.0425,87.9347,4941,0.0000028,0.99950928,0.0000,12/31.3998/2018,2000,g 12.2,4.0
# From MPEC 2023-JA2
C/2019 M4 (TESS),h,09/09.8289/2019,65.6886,52.6435,260.3451,1.000584,9.191049,2000,5.0,4.0
# From MPEC 2023-C45
C/2019 N1 (ATLAS),e,82.5200,13.5186,193.3462,981.4303,0.0000321,0.99826459,0.0000,11/30.5586/2020,2000,g  7.5,4.0
# From MPEC 2023-CD8
A/2019 N2,e,89.3228,276.2216,347.0783,1161,0.0000249,0.99832785,0.0000,08/22.4666/2019,2000,g 12.5,2.0
# From MPEC 2022-A21
C/2019 NJ3 (Lemmon),h,10/22.3414/2020,99.3409,142.4918,246.8750,1.001514,4.362921,2000,9.0,4.0
# From MPEC 2025-J08
C/2019 O2 (PANSTARRS),e,93.3020,48.2622,129.5786,58.71697,0.0021906,0.83512197,1.6580,05/02.0/2025,2000,g  5.0,4.0
# From MPC182878
C/2019 O3 (Palomar),h,03/08.5851/2021,89.7977,300.4741,60.1047,1.002913,8.820819,2000,3.5,4.0
# From MPEC 2021-P47
A/2019 O4,e,115.0120,354.9271,61.8303,33.23868,0.0051433,0.89040583,9.8074,05/02.0/2025,2000,g 15.5,2.0
# From MPEC 2024-EF7
C/2019 Q1 (Lemmon),h,07/22.1032/2020,155.7230,42.4654,56.2562,1.002341,5.003275,2000,8.5,4.0
# From MPC117072
A/2019 Q2,e,158.9771,188.1145,176.5050,58.76059,0.0021881,0.97853432,0.0000,07/23.5219/2019,2000,g 18.0,2.0
# From MPC117072
P/2019 S2 (PANSTARRS),e,10.4637,93.1806,216.9503,4.747232,0.0952891,0.20467336,215.9636,05/02.0/2025,2000,g 13.5,4.0
# From MPEC 2022-CN4
P/2019 S3 (PANSTARRS),e,8.6939,150.1417,213.0935,3.414567,0.1562070,0.47077224,323.8908,05/02.0/2025,2000,g 18.3,4.0
# From MPEC 2021-S45
C/2019 S4 (Lemmon),e,92.0989,63.1565,71.3715,248.0374,0.0002523,0.98613333,0.0000,04/09.2764/2020,2000,g 11.0,4.0
# From MPEC 2023-N01
A/2019 T1,e,120.8259,6.9322,90.9906,38.77235,0.0040825,0.88973489,6.4014,05/02.0/2025,2000,g 13.0,2.0
# From MPEC 2023-R20
C/2019 T2 (Lemmon),e,111.3796,155.6553,239.3916,3639,0.0000045,0.99927365,0.0000,04/22.5610/2021,2000,g  9.0,4.0
# From MPEC 2023-UR6
C/2019 T3 (ATLAS),e,121.8709,139.5418,112.4863,4375,0.0000034,0.99863922,0.0000,03/04.6624/2021,2000,g  6.8,4.0
# From MPC182878
C/2019 T4 (ATLAS),e,53.6249,199.9067,351.1094,879.5363,0.0000378,0.99518173,0.0000,06/08.6568/2022,2000,g  5.0,4.0
# From MPEC 2021-P47
P/2019 T5 (ATLAS),e,33.4949,247.6122,189.6195,8.007023,0.0435008,0.80979488,91.2924,05/02.0/2025,2000,g 15.0,4.0
# From MPEC 2021-P47
P/2019 T6 (PANSTARRS),e,18.6991,71.2464,329.0564,5.442555,0.0776247,0.62253516,155.3311,05/02.0/2025,2000,g 15.5,4.0
# From MPC118096
P/2019 U4 (PANSTARRS),e,11.6955,200.0036,181.0785,3.518964,0.1493076,0.47577008,306.0232,05/02.0/2025,2000,g 19.0,4.0
# From MPEC 2025-J08
C/2019 U5 (PANSTARRS),h,03/29.4880/2023,113.5124,2.6156,181.4519,1.000267,3.624145,2000,4.5,4.0
# From MPEC 2022-H04
C/2019 U6 (Lemmon),e,60.9817,235.7587,329.4361,305.0787,0.0001850,0.99702681,0.0000,06/18.3031/2020,2000,g 10.0,4.0
# From MPEC 2022-N37
C/2019 V1 (Borisov),e,61.9485,83.1481,51.1898,2499,0.0000079,0.99876260,0.0000,07/17.4706/2020,2000,g 11.0,4.0
# From MPEC 2022-L66
P/2019 V2 (Groeller),e,11.8069,189.1427,335.6301,7.494807,0.0480356,0.33181193,79.6370,05/02.0/2025,2000,g 10.0,4.0
# From MPEC 2023-A50
P/2019 W1 (PANSTARRS),e,23.4676,35.3641,18.8800,4.548573,0.1015994,0.26721628,221.7039,05/02.0/2025,2000,g 12.9,4.0
# From MPEC 2021-P47
P/2019 X1 (Pruyne),e,10.2464,43.6779,36.9742,6.179059,0.0641683,0.30386594,135.2936,05/02.0/2025,2000,g 10.4,4.0
# From MPEC 2020-C98
P/2019 X2 (Pan-STARRS),e,15.8947,250.8331,213.5076,3.634276,0.1422582,0.50045299,280.0098,05/02.0/2025,2000,g 18.0,4.0
# From MPC119999
C/2019 Y1 (ATLAS),e,73.2934,31.4868,57.9130,88.10239,0.0011919,0.99061899,0.0000,03/17.1266/2020,2000,g 13.7,4.0
# From MPEC 2024-A43
C/2019 Y4 (ATLAS),e,44.9497,120.7848,177.4140,333.2357,0.0001620,0.99922826,0.0000,05/29.7807/2020,2000,g 11.8,6.0
# From MPEC 2020-L06
C/2019 Y4-A (ATLAS),h,05/29.8315/2020,45.3850,121.1522,177.2463,1.001370,0.255329,2000,11.6,6.0
# From MPEC 2025-CE3
C/2019 Y4-B (ATLAS),e,45.0312,120.8480,177.3731,1405,0.0000187,0.99981717,0.0000,05/29.7885/2020,2000,g 12.1,6.0
# From MPEC 2020-L06
C/2019 Y4-C (ATLAS),h,05/29.7848/2020,45.1686,120.8795,177.2791,1.002098,0.256401,2000,12.7,6.0
# From MPEC 2020-L06
C/2019 Y4-D (ATLAS),e,45.2211,121.2418,177.4217,67.41049,0.0017808,0.99620653,0.0000,05/29.8774/2020,2000,g 12.5,6.0
# From MPEC 2023-A50
C/2019 Y5 (PANSTARRS),e,82.7717,51.7633,303.6588,690.3151,0.0000543,0.99285411,0.0000,08/16.6844/2019,2000,g 11.0,4.0
# From MPEC 2023-A50
A/2020 A1,e,149.0316,119.0713,302.4016,25.46893,0.0076681,0.93439399,15.1799,05/02.0/2025,2000,g 18.0,2.0
# From MPEC 2022-YN2
C/2020 A2 (Iwamoto),e,120.5102,286.1937,68.0146,985.1661,0.0000319,0.99901038,0.0000,01/07.2767/2020,2000,g 13.5,4.0
# From MPEC 2023-A50
C/2020 A3 (ATLAS),e,146.6234,120.7993,268.2424,5838,0.0000022,0.99901452,0.0000,06/27.0974/2019,2000,g  8.0,4.0
# From MPEC 2022-P91
P/2020 A4 (PANSTARRS-Lemmon),e,25.0016,312.2874,144.8915,8.202087,0.0419583,0.65447524,83.3131,05/02.0/2025,2000,g 15.0,4.0
# From MPEC 2020-N08
A/2020 B1,e,18.5388,309.8132,154.8635,52.03353,0.0026259,0.96657983,5.1269,05/02.0/2025,2000,g 21.0,2.0
# From MPEC 2020-HN5
C/2020 B2 (Lemmon),e,55.7543,354.1891,143.6209,67.85601,0.0017633,0.95938284,3.3886,05/02.0/2025,2000,g 10.0,4.0
# From MPEC 2022-N37
C/2020 B3 (Rankin),e,20.7068,185.7567,324.9208,1034,0.0000296,0.99678240,0.0000,10/20.6493/2019,2000,g 13.0,4.0
# From MPEC 2023-KD6
P/2020 B4 (Sheppard),e,11.6035,185.9525,342.0354,7.972682,0.0437822,0.19281300,55.1625,05/02.0/2025,2000,g 10.5,4.0
# From MPEC 2025-J08
C/2020 F2 (ATLAS),h,07/12.6620/2022,163.5896,250.3018,48.2421,1.002843,8.813574,2000,4.5,4.0
# From MPEC 2021-O56
C/2020 F3 (NEOWISE),e,129.1247,61.0824,37.3571,400.0168,0.0001232,0.99926573,0.0000,07/04.8373/2020,2000,g  7.5,5.2
# From MPEC 2024-UQ8
C/2020 F5 (MASTER),e,52.2294,350.5361,310.6267,164.8783,0.0004655,0.97376014,0.0000,03/16.2827/2021,2000,g  6.5,3.2
# From MPEC 2020-L06
C/2020 F6 (PANSTARRS),e,174.5840,207.8480,344.3487,345.9857,0.0001531,0.98988889,0.0000,04/10.5109/2020,2000,g 14.5,2.8
# From MPEC 2024-A43
C/2020 F7 (Lemmon),e,93.9792,321.8252,227.9777,567.0849,0.0000730,0.99059301,0.0000,11/13.8192/2021,2000,g  7.0,4.0
# From MPEC 2023-J29
C/2020 F8 (SWAN),h,05/25.9619/2020,110.5547,259.8006,68.1038,1.000073,0.432351,2000,10.0,4.0
# From MPEC 2020-L06
P/2020 G1 (Pimentel),e,18.5081,240.1015,207.6431,3.606691,0.1438933,0.86080875,269.0219,05/02.0/2025,2000,g 17.0,4.0
# From MPEC 2022-YB4
C/2020 H2 (Pruyne),e,124.7828,277.6716,26.5891,178.0279,0.0004149,0.99534586,0.0000,04/27.0187/2020,2000,g 14.0,3.2
# From MPEC 2020-HM1
C/2020 H3 (Wierzchos),p,06/05.7162/2020,62.5292,30.4456,2.300288,270.6227,2000,13.5,4.0
# From MPEC 2020-L06
C/2020 H4 (Leonard),e,84.4945,307.4694,117.5685,47.84257,0.0029784,0.98062339,0.0000,08/29.2905/2020,2000,g 15.0,3.2
# From MPEC 2025-J08
C/2020 H5 (Robinson),e,70.2325,210.6168,326.2673,5761,0.0000023,0.99837965,0.0000,12/09.9549/2020,2000,g  5.0,4.0
# From MPEC 2024-JU4
C/2020 H6 (ATLAS),e,79.9867,213.6962,20.1991,2067,0.0000105,0.99772790,0.0000,09/29.6479/2021,2000,g  8.0,3.2
# From MPEC 2020-KB7
C/2020 H7 (Lemmon),e,135.9235,323.5194,82.6780,1405,0.0000187,0.99685380,0.0000,06/02.9510/2020,2000,g 11.0,4.0
# From MPEC 2021-N06
C/2020 H8 (PANSTARRS),e,99.7040,68.4403,128.8299,592.2621,0.0000684,0.99212442,0.0000,06/04.7647/2020,2000,g 10.5,4.0
# From MPEC 2022-ED3
A/2020 H9,e,137.8743,213.1287,312.6369,344.1320,0.0001544,0.99255331,0.0000,12/21.8298/2019,2000,g 18.0,2.0
# From MPEC 2023-HN7
C/2020 H11 (PANSTARRS-Lemmon),e,151.3749,303.0565,91.3717,222067,0.0000000,0.99996568,0.0000,09/12.7679/2020,2000,g  8.5,4.0
# From MPEC 2023-KD6
C/2020 J1 (SONEAR),e,142.3069,226.5903,341.5925,14057,0.0000006,0.99976199,0.0000,04/18.1226/2021,2000,g  8.5,3.2
# From MPC182879
C/2020 K1 (PANSTARRS),e,89.6716,94.3661,213.9710,2693,0.0000071,0.99885855,0.0000,05/08.8157/2023,2000,g  5.5,4.0
# From MPEC 2021-N06
C/2020 K2 (PANSTARRS),h,08/04.6439/2020,90.9904,288.4323,67.3145,1.001198,8.880274,2000,10.8,4.0
# From MPEC 2020-KF9
C/2020 K3 (Leonard),p,06/01.0032/2020,129.0152,64.4924,1.583069,28.3546,2000,14.5,4.0
# From MPEC 2020-L06
C/2020 K4 (PANSTARRS),e,125.5850,264.2744,308.7954,23.93206,0.0084185,0.92709076,15.8611,05/02.0/2025,2000,g 16.5,4.0
# From MPEC 2021-R75
C/2020 K5 (PANSTARRS),h,06/04.3812/2021,67.0690,86.1420,249.6404,1.000849,1.540373,2000,11.0,4.0
# From MPEC 2023-N01
C/2020 K6 (Rankin),h,09/14.8729/2021,103.6319,291.5976,44.2847,1.002296,5.866352,2000,8.0,4.0
# From MPEC 2023-A50
C/2020 K7 (PANSTARRS),e,32.0444,286.1304,358.0962,94.87330,0.0010666,0.93265465,2.1497,05/02.0/2025,2000,g  8.0,4.0
# From MPEC 2021-P47
C/2020 K8 (Catalina-ATLAS),h,09/15.6553/2020,31.3886,181.3256,260.1359,1.000310,0.471367,2000,15.0,3.2
# From MPEC 2021-BE3
P/2020 K9 (Lemmon-PANSTARRS),e,23.1916,166.3119,197.0929,4.207106,0.1142165,0.32020799,175.9672,05/02.0/2025,2000,g 12.5,4.0
# From MPEC 2023-C45
P/2020 M1 (PANSTARRS),e,8.5344,142.6134,72.5047,5.312296,0.0804972,0.47342625,157.5133,05/02.0/2025,2000,g 14.5,4.0
# From MPEC 2022-H30
C/2020 M3 (ATLAS),e,23.4710,71.1732,328.6622,27.29751,0.0069107,0.95331096,11.3970,05/02.0/2025,2000,g 14.5,4.0
# From MPEC 2023-N01
A/2020 M4,e,160.1043,348.6159,104.4920,61487,0.0000001,0.99990337,0.0000,11/22.9336/2020,2000,g 14.5,2.0
# From MPEC 2024-NE4
P/2020 MK4 (PANSTARRS),e,6.7819,0.6687,93.5077,6.223331,0.0634848,0.01489749,314.5529,05/02.0/2025,2000,g  8.0,4.0
# From MPEC 2023-FK0
C/2020 M5 (ATLAS),h,08/19.7779/2021,93.1770,352.0265,126.2464,1.000142,2.999858,2000,9.0,4.0
# From MPEC 2022-GA9
C/2020 N1 (PANSTARRS),h,03/13.0874/2021,29.7640,279.8590,186.8287,1.000833,1.317426,2000,12.5,4.0
# From MPEC 2021-P47
